[{"OBJECT_NAME":"PULSAR-0","OBJECT_ID":"2025-135P","EPOCH":"2026-03-09T21:02:58.177536","MEAN_MOTION":15.1958967,"ECCENTRICITY":0.00037333,"INCLINATION":97.4569,"RA_OF_ASC_NODE":184.5909,"ARG_OF_PERICENTER":149.6553,"MEAN_ANOMALY":210.4899,"EPHEMERIS_TYPE":0,"CLASSIFICATION_TYPE":"U","NORAD_CAT_ID":64541,"ELEMENT_SET_NO":999,"REV_AT_EPOCH":3974,"BSTAR":0.00023616879,"MEAN_MOTION_DOT":4.959e-5,"MEAN_MOTION_DDOT":0},{"OBJECT_NAME":"TRANSPORTER-15 OBJECT AB","OBJECT_ID":"2025-276AB","EPOCH":"2026-03-09T17:52:46.062048","MEAN_MOTION":15.19167026,"ECCENTRICITY":0.00043423,"INCLINATION":97.4278,"RA_OF_ASC_NODE":144.019,"ARG_OF_PERICENTER":4.0315,"MEAN_ANOMALY":356.0954,"EPHEMERIS_TYPE":0,"CLASSIFICATION_TYPE":"U","NORAD_CAT_ID":66691,"ELEMENT_SET_NO":999,"REV_AT_EPOCH":1532,"BSTAR":0.00051798273,"MEAN_MOTION_DOT":0.00010833,"MEAN_MOTION_DDOT":0}]
